KUIPER-00157            
1 65970U 25228Z   25365.19631443  .00063502  00000+0  17286-2 0  9999
2 65970  51.8811 291.5168 0007428  96.9016 263.2816 15.36886326 13254
KUIPER-00144            
1 67133U 25301A   25365.51540880  .00046617  00000+0  13255-2 0  9994
2 67133  51.8703  34.5916 0006391 133.9774 226.1740 15.35674528  3255
KUIPER-00164            
1 67134U 25301B   25365.57346704  .00072708  00000+0  20135-2 0  9995
2 67134  51.8724  34.2315 0003161 117.8634 242.2673 15.36310597  3446
KUIPER-00175            
1 67135U 25301C   25365.56869015  .00052124  00000+0  14262-2 0  9994
2 67135  51.8743  34.1958 0002910  66.4765 293.6527 15.36834815  3335
KUIPER-00179            
1 67136U 25301D   25365.57190406  .00038153  00000+0  10633-2 0  9991
2 67136  51.8736  34.2185 0003348  96.8001 263.3367 15.36405984  3446
KUIPER-00181            
1 67137U 25301E   25365.59090092  .00031899  00000+0  94290-3 0  9996
2 67137  51.8645  34.3420 0010478 160.5190 199.6198 15.34600739  3423
KUIPER-00183            
1 67138U 25301F   25365.59410225  .00029122  00000+0  86906-3 0  9992
2 67138  51.8623  34.3601 0011054 163.1457 196.9897 15.34341793  3436
KUIPER-00184            
1 67139U 25301G   25365.59012723  .00030879  00000+0  91229-3 0  9999
2 67139  51.8634  34.3357 0009091 158.6940 201.4425 15.34646926  3548
